[{"OBJECT_NAME":"STARLINK-1593","OBJECT_ID":"2020-057C","EPOCH":"2026-03-10T00:00:02.999808","MEAN_MOTION":15.74657731,"ECCENTRICITY":0.00026845,"INCLINATION":53.0438,"RA_OF_ASC_NODE":268.8311,"ARG_OF_PERICENTER":147.5377,"MEAN_ANOMALY":277.5638,"EPHEMERIS_TYPE":0,"CLASSIFICATION_TYPE":"U","NORAD_CAT_ID":46119,"ELEMENT_SET_NO":999,"REV_AT_EPOCH":596,"BSTAR":0.0012691953,"MEAN_MOTION_DOT":0.00193505,"MEAN_MOTION_DDOT":0},{"OBJECT_NAME":"STARLINK-36688","OBJECT_ID":"2026-022J","EPOCH":"2026-03-09T21:46:58.719648","MEAN_MOTION":15.75232546,"ECCENTRICITY":0.00010324,"INCLINATION":97.2857,"RA_OF_ASC_NODE":102.9026,"ARG_OF_PERICENTER":91.3432,"MEAN_ANOMALY":268.7952,"EPHEMERIS_TYPE":0,"CLASSIFICATION_TYPE":"U","NORAD_CAT_ID":67656,"ELEMENT_SET_NO":999,"REV_AT_EPOCH":558,"BSTAR":0.0012136385,"MEAN_MOTION_DOT":0.00185212,"MEAN_MOTION_DDOT":0}]
